<?xml version="1.0" encoding="UTF-8"?>
<kml xmlns="http://www.opengis.net/kml/2.2">
<Document>
<Placemark>
<name>circuitoEsquema.xml</name>
<LineString>
<extrude>1</extrude>
<tessellate>1</tessellate>
<coordinates>
-1.022281,52.069227,146
-1.019907,52.071133,150
-1.019366,52.071337,150
-1.01834,52.0713,151
-1.016873,52.071193,152
-1.015785,52.071418,153
-1.014010,52.072307,154
-1.013319,52.072542,154
-1.0128,52.072180,154
-1.012607,52.071564,155
-1.012242,52.071407,156
-1.011876,52.071582,156
-1.0114,52.0728,155
-1.011575,52.073165,154
-1.017004,52.076209,154
-1.0183,52.0769,153
-1.019450,52.077149,152
-1.020046,52.076685,151
-1.020201,52.076115,152
-1.021140,52.075826,152
-1.021651,52.076454,152
-1.020768,52.077516,150
-1.019790,52.078254,150
-1.017833,52.078650,151
-1.012192,52.078951,154
-1.011460,52.078744,154
-1.0111,52.0783,154
-1.010447,52.077032,154
-1.010189,52.074510,155
-1.009480,52.073387,154
-1.0100,52.0722,155
-1.009904,52.071761,155
-1.0094,52.0714,154
-1.009280,52.070874,155
-1.010011,52.070367,152
-1.010801,52.070234,152
-1.011166,52.069887,152
-1.016287,52.064164,152
-1.016287,52.064164,150
-1.016942,52.063674,151
-1.017773,52.063538,151
-1.018715,52.063804,151
-1.019092,52.064202,151
-1.020048,52.065135,151
-1.0217,52.0664,146
-1.022182,52.066554,146
-1.0225,52.0664,146
-1.022925,52.066225,147
-1.023388,52.066363,147
-1.023931,52.066746,147
-1.0242,52.0672,146
-1.024292,52.067554,144
-1.024059,52.067770,144
-1.022281,52.069227,146
</coordinates>
<altitudeMode>relativeToGround</altitudeMode>
</LineString>
<Style> id='lineaRoja'>
<LineStyle>
<color>#ff0000ff</color>
<width>5</width>
</LineStyle>
</Style>
</Placemark>
</Document>
</kml>
